[{"OBJECT_NAME":"STARLINK-31265","OBJECT_ID":"2024-041A","EPOCH":"2026-03-09T23:10:40.556352","MEAN_MOTION":15.2757399,"ECCENTRICITY":1.185e-5,"INCLINATION":42.9999,"RA_OF_ASC_NODE":309.1532,"ARG_OF_PERICENTER":236.065,"MEAN_ANOMALY":124.019,"EPHEMERIS_TYPE":0,"CLASSIFICATION_TYPE":"U","NORAD_CAT_ID":59074,"ELEMENT_SET_NO":999,"REV_AT_EPOCH":11431,"BSTAR":0.00011886748,"MEAN_MOTION_DOT":3.01e-5,"MEAN_MOTION_DDOT":0},{"OBJECT_NAME":"COSMOS 546","OBJECT_ID":"1973-005A","EPOCH":"2026-03-09T21:40:39.247392","MEAN_MOTION":15.29707303,"ECCENTRICITY":0.00147738,"INCLINATION":50.6327,"RA_OF_ASC_NODE":289.914,"ARG_OF_PERICENTER":261.1516,"MEAN_ANOMALY":98.7778,"EPHEMERIS_TYPE":0,"CLASSIFICATION_TYPE":"U","NORAD_CAT_ID":6350,"ELEMENT_SET_NO":999,"REV_AT_EPOCH":92802,"BSTAR":9.142057e-5,"MEAN_MOTION_DOT":2.316e-5,"MEAN_MOTION_DDOT":0}]
